STARLINK-5800           
1 56041U 23042BH  26068.17213104  .00000755  00000+0  70952-4 0  9991
2 56041  43.0063  32.7480 0001763 270.3709  89.6932 15.02540416163132
ION SCV-014             
1 62630U 25009X   26068.71776957  .00001812  00000+0  13229-3 0  9995
2 62630  97.4923 144.8636 0006450 112.6479 247.5430 15.04884649 63025
